H1 CPF 01  gfz 2021 11 30 13  8342 tandemx   
H2 1003001  6202 36605    2021 11 30 12 59 42 2021 12 05 00 00 42   120 1 1  0 0 0
H9
10 0 59549  59742.000000  0    6052835.392   2652296.825  -1956384.736
10 0 59549  59862.000000  0    6305418.257   2563772.170  -1074481.730
10 0 59549  59982.000000  0    6445933.503   2427041.432   -173686.665
10 0 59549  60102.000000  0    6471051.399   2246455.867    730163.072
10 0 59549  60222.000000  0    6379559.083   2027182.781   1621158.632
10 0 59549  60342.000000  0    6172400.290   1775078.402   2483607.498
10 0 59549  60462.000000  0    5852669.855   1496545.576   3302319.709
10 0 59549  60582.000000  0    5425564.501   1198381.685   4062882.748
10 0 59549  60702.000000  0    4898290.491    887620.456   4751920.147
10 0 59549  60822.000000  0    4279933.618    571372.602   5357327.452
10 0 59549  60942.000000  0    3581293.251    256667.595   5868484.697
10 0 59549  61062.000000  0    2814683.344    -49698.777   6276438.285
10 0 59549  61182.000000  0    1993708.950   -341306.730   6574050.958
10 0 59549  61302.000000  0    1133021.003   -612243.782   6756121.590
10 0 59549  61422.000000  0     248051.504   -857222.913   6819471.707
10 0 59549  61542.000000  0    -645264.372  -1071684.419   6762996.345
10 0 59549  61662.000000  0   -1530774.463  -1251880.661   6587681.368
10 0 59549  61782.000000  0   -2392400.273  -1394941.519   6296586.308
10 0 59549  61902.000000  0   -3214426.854  -1498919.314   5894794.738
10 0 59549  62022.000000  0   -3981791.471  -1562814.193   5389333.515
10 0 59549  62142.000000  0   -4680365.005  -1586579.845   4789055.917
10 0 59549  62262.000000  0   -5297219.121  -1571107.799   4104491.483
10 0 59549  62382.000000  0   -5820873.360  -1518190.383   3347664.104
10 0 59549  62502.000000  0   -6241516.877  -1430463.306   2531882.883
10 0 59549  62622.000000  0   -6551202.558  -1311330.083   1671508.706
10 0 59549  62742.000000  0   -6744007.388  -1164869.091    781696.199
10 0 59549  62862.000000  0   -6816151.059   -995724.899   -121881.018
10 0 59549  62982.000000  0   -6766072.026   -808987.150  -1023315.182
10 0 59549  63102.000000  0   -6594458.501   -610060.241  -1906753.669
10 0 59549  63222.000000  0   -6304233.950   -404527.224  -2756684.787
10 0 59549  63342.000000  0   -5900499.863   -198012.362  -3558216.130
10 0 59549  63462.000000  0   -5390433.920      3956.305  -4297339.266
10 0 59549  63582.000000  0   -4783148.585    196079.712  -4961172.801
10 0 59549  63702.000000  0   -4089515.802    373412.829  -5538181.538
10 0 59549  63822.000000  0   -3321961.053    531478.603  -6018368.653
10 0 59549  63942.000000  0   -2494232.283    666368.503  -6393437.035
10 0 59549  64062.000000  0   -1621150.724    774828.600  -6656920.553
10 0 59549  64182.000000  0    -718345.368    854329.814  -6804285.189
10 0 59549  64302.000000  0     198022.773    903121.282  -6832997.059
10 0 59549  64422.000000  0    1111541.718    920265.549  -6742561.324
10 0 59549  64542.000000  0    2005835.808    905655.755  -6534532.472
10 0 59549  64662.000000  0    2864853.585    860014.784  -6212490.350
10 0 59549  64782.000000  0    3673151.389    784876.142  -5781984.475
10 0 59549  64902.000000  0    4416167.933    682546.105  -5250447.547
10 0 59549  65022.000000  0    5080487.920    556048.321  -4627079.041
10 0 59549  65142.000000  0    5654090.342    409051.909  -3922697.101
10 0 59549  65262.000000  0    6126574.501    245783.312  -3149560.017
10 0 59549  65382.000000  0    6489359.663     70924.263  -2321160.636
10 0 59549  65502.000000  0    6735854.703   -110502.604  -1451994.596
10 0 59549  65622.000000  0    6861590.072   -293257.663   -557305.374
10 0 59549  65742.000000  0    6864308.936   -472014.321    347186.717
10 0 59549  65862.000000  0    6744015.839   -641492.997   1245567.311
10 0 59549  65982.000000  0    6502979.586   -796595.001   2122016.409
10 0 59549  66102.000000  0    6145690.628   -932532.781   2961096.904
10 0 59549  66222.000000  0    5678771.566  -1044953.064   3748034.384
10 0 59549  66342.000000  0    5110847.631  -1130049.693   4468982.284
10 0 59549  66462.000000  0    4452377.872  -1184664.558   5111268.957
10 0 59549  66582.000000  0    3715452.133  -1206371.783   5663619.906
10 0 59549  66702.000000  0    2913559.901  -1193544.796   6116352.986
10 0 59549  66822.000000  0    2061335.582  -1145405.700   6461542.830
10 0 59549  66942.000000  0    1174286.728  -1062055.482   6693154.252
10 0 59549  67062.000000  0     268507.741   -944484.137   6807142.464
10 0 59549  67182.000000  0    -639613.445   -794560.452   6801518.112
10 0 59549  67302.000000  0   -1533690.816   -615002.534   6676378.822
10 0 59549  67422.000000  0   -2397634.423   -409328.682   6433907.440
10 0 59549  67542.000000  0   -3215938.723   -181789.559   6078337.017
10 0 59549  67662.000000  0   -3973962.234     62717.320   5615882.686
10 0 59549  67782.000000  0   -4658193.949    318749.353   5054639.306
10 0 59549  67902.000000  0   -5256500.712    580434.954   4404445.476
10 0 59549  68022.000000  0   -5758351.036    841602.224   3676715.400
10 0 59549  68142.000000  0   -6155009.247   1095917.561   2884241.041
10 0 59549  68262.000000  0   -6439697.413   1337031.210   2040967.756
10 0 59549  68382.000000  0   -6607720.089   1558725.805   1161746.158
10 0 59549  68502.000000  0   -6656549.120   1755065.019    262064.614
10 0 59549  68622.000000  0   -6585863.798   1920538.117   -642232.490
10 0 59549  68742.000000  0   -6397545.823   2050195.879  -1535232.825
10 0 59549  68862.000000  0   -6095630.708   2139775.452  -2401244.141
10 0 59549  68982.000000  0   -5686216.249   2185811.227  -3225077.833
10 0 59549  69102.000000  0   -5177329.272   2185727.851  -3992320.206
10 0 59549  69222.000000  0   -4578756.448   2137913.187  -4689584.691
10 0 59549  69342.000000  0   -3901844.486   2041770.568  -5304741.221
10 0 59549  69462.000000  0   -3159275.404   1897749.668  -5827118.943
10 0 59549  69582.000000  0   -2364823.039   1707355.761  -6247681.259
10 0 59549  69702.000000  0   -1533093.537   1473137.138  -6559171.762
10 0 59549  69822.000000  0    -679256.191   1198651.104  -6756226.848
10 0 59549  69942.000000  0     181229.023    888409.639  -6835457.659
10 0 59549  70062.000000  0    1032883.874    547806.578  -6795501.948
10 0 59549  70182.000000  0    1860484.277    183025.766  -6637047.186
10 0 59549  70302.000000  0    2649326.700   -199068.592  -6362819.055
10 0 59549  70422.000000  0    3385484.516   -591056.941  -5977540.137
10 0 59549  70542.000000  0    4056051.379   -985103.878  -5487855.849
10 0 59549  70662.000000  0    4649367.577  -1373109.648  -4902231.417
10 0 59549  70782.000000  0    5155228.186  -1746872.984  -4230817.451
10 0 59549  70902.000000  0    5565066.479  -2098260.721  -3485284.416
10 0 59549  71022.000000  0    5872109.404  -2419381.134  -2678628.069
10 0 59549  71142.000000  0    6071500.709  -2702757.542  -1824947.528
10 0 59549  71262.000000  0    6160387.698  -2941497.621   -939199.954
10 0 59549  71382.000000  0    6137969.911  -3129454.416    -36936.452
10 0 59549  71502.000000  0    6005507.071  -3261374.916    865976.360
10 0 59549  71622.000000  0    5766286.682  -3333032.360   1753643.242
10 0 59549  71742.000000  0    5425548.585  -3341337.691   2610430.534
10 0 59549  71862.000000  0    4990369.902  -3284427.695   3421249.298
10 0 59549  71982.000000  0    4469514.457  -3161726.887   4171827.784
10 0 59549  72102.000000  0    3873251.387  -2973982.937   4848966.006
10 0 59549  72222.000000  0    3213145.379  -2723275.526   5440770.509
10 0 59549  72342.000000  0    2501824.208  -2412996.099   5936861.182
10 0 59549  72462.000000  0    1752731.250  -2047801.277   6328548.948
10 0 59549  72582.000000  0     979866.906  -1633541.217   6608982.353
10 0 59549  72702.000000  0     197524.035  -1177163.761   6773261.368
10 0 59549  72822.000000  0    -579977.079   -686596.156   6818517.385
10 0 59549  72942.000000  0   -1338549.949   -170606.831   6743959.446
10 0 59549  73062.000000  0   -2064595.932    361350.979   6550887.248
10 0 59549  73182.000000  0   -2745247.212    899311.803   6242670.160
10 0 59549  73302.000000  0   -3368595.402   1432983.598   5824692.466
10 0 59549  73422.000000  0   -3923902.507   1951943.783   5304265.538
10 0 59549  73542.000000  0   -4401791.190   2445843.090   4690506.755
10 0 59549  73662.000000  0   -4794410.076   2904613.418   3994184.757
10 0 59549  73782.000000  0   -5095569.155   3318674.185   3227533.271
10 0 59549  73902.000000  0   -5300843.724   3679133.890   2404037.920
10 0 59549  74022.000000  0   -5407644.296   3977982.587   1538197.925
10 0 59549  74142.000000  0   -5415250.256   4208269.725    645265.579
10 0 59549  74262.000000  0   -5324804.314   4364261.744   -259030.216
10 0 59549  74382.000000  0   -5139269.881   4441576.390  -1158768.963
10 0 59549  74502.000000  0   -4863351.758   4437290.794  -2038128.650
10 0 59549  74622.000000  0   -4503380.528   4350018.484  -2881673.263
10 0 59549  74742.000000  0   -4067165.280   4179953.975  -3674629.332
10 0 59549  74862.000000  0   -3563819.061   3928885.243  -4403146.266
10 0 59549  74982.000000  0   -3003562.514   3600174.545  -5054535.164
10 0 59549  75102.000000  0   -2397512.134   3198708.856  -5617482.418
10 0 59549  75222.000000  0   -1757457.301   2730822.512  -6082237.969
10 0 59549  75342.000000  0   -1095628.922   2204191.600  -6440773.974
10 0 59549  75462.000000  0    -424466.650   1627704.172  -6686911.159
10 0 59549  75582.000000  0     243611.336   1011309.460  -6816414.567
10 0 59549  75702.000000  0     896432.110    365848.089  -6827058.677
10 0 59549  75822.000000  0    1522285.345   -297134.839  -6718662.695
10 0 59549  75942.000000  0    2110128.491   -965591.874  -6493091.686
10 0 59549  76062.000000  0    2649776.976  -1627186.228  -6154228.073
10 0 59549  76182.000000  0    3132078.571  -2269513.633  -5707911.827
99
